[{"OBJECT_NAME":"STARLINK-35878","OBJECT_ID":"2025-303R","EPOCH":"2026-03-09T00:33:41.453280","MEAN_MOTION":15.27598188,"ECCENTRICITY":0.00029159,"INCLINATION":43.002,"RA_OF_ASC_NODE":314.44,"ARG_OF_PERICENTER":246.4167,"MEAN_ANOMALY":113.6378,"EPHEMERIS_TYPE":0,"CLASSIFICATION_TYPE":"U","NORAD_CAT_ID":67178,"ELEMENT_SET_NO":999,"REV_AT_EPOCH":1263,"BSTAR":0.0012258242,"MEAN_MOTION_DOT":0.00033645,"MEAN_MOTION_DDOT":0},{"OBJECT_NAME":"SL-3 R\/B","OBJECT_ID":"1982-027B","EPOCH":"2026-03-09T22:44:40.208640","MEAN_MOTION":15.28335844,"ECCENTRICITY":0.00065199,"INCLINATION":81.188,"RA_OF_ASC_NODE":37.4466,"ARG_OF_PERICENTER":276.581,"MEAN_ANOMALY":83.4683,"EPHEMERIS_TYPE":0,"CLASSIFICATION_TYPE":"U","NORAD_CAT_ID":13121,"ELEMENT_SET_NO":999,"REV_AT_EPOCH":39859,"BSTAR":0.00030526741,"MEAN_MOTION_DOT":8.453e-5,"MEAN_MOTION_DDOT":0}]
